OBJECT_NAME,OBJECT_ID,EPOCH,MEAN_MOTION,ECCENTRICITY,INCLINATION,RA_OF_ASC_NODE,ARG_OF_PERICENTER,MEAN_ANOMALY,EPHEMERIS_TYPE,CLASSIFICATION_TYPE,NORAD_CAT_ID,ELEMENT_SET_NO,REV_AT_EPOCH,BSTAR,MEAN_MOTION_DOT,MEAN_MOTION_DDOT
STARLINK-37190,2026-063S,2026-05-11T03:31:52.025952,15.49198553,.0001076,97.2846,273.8573,90.7238,269.4136,0,U,68396,999,746,.73215E-3,.39945E-3,0
STARLINK-37194,2026-063T,2026-05-10T22:30:52.104384,15.46660066,.00054232,97.2868,273.5303,136.1203,224.0478,0,U,68397,999,742,-.45118039E-1,-.2009705E-1,0
STARLINK-37220,2026-063U,2026-05-11T04:00:00.999936,15.49150703,.00013155,97.2843,273.8137,84.6060,225.7921,0,U,68398,999,574,.10983397E-2,.60021E-3,0
STARLINK-37187,2026-063V,2026-05-10T23:27:57.559392,15.49212014,.0002006,97.2844,273.6278,85.5832,274.5649,0,U,68399,999,743,.46148E-3,.25109E-3,0
STARLINK-36235,2026-063W,2026-05-11T04:00:00.999936,15.45268436,.00020868,97.2848,273.9191,74.2344,118.0819,0,U,68400,999,573,-.4251263E-1,-.1822413E-1,0
STARLINK-37175,2026-063X,2026-05-10T23:17:21.020352,15.49202932,.0001613,97.2839,273.4848,91.9653,268.1783,0,U,68401,999,742,.10297E-2,.56343E-3,0
STARLINK-36360,2026-063Y,2026-05-11T04:00:00.999936,15.47817173,.00024396,97.2840,273.8957,82.8270,66.2659,0,U,68402,999,573,-.40477953E-1,-.1888157E-1,0
STARLINK-37218,2026-063Z,2026-05-10T22:02:26.565792,15.75187519,.00028183,97.2842,273.8652,86.5468,273.6119,0,U,68403,999,744,.10212079E-2,.154986E-2,0
STARLINK-37188,2026-063AA,2026-05-11T03:19:32.619072,15.49200837,.00011108,97.2844,273.8695,82.6150,277.5227,0,U,68404,999,746,.11408822E-2,.62478E-3,0
SHIYAN-33,2026-064A,2026-05-11T03:32:19.051872,15.23577343,.0015623,97.4628,206.8564,79.5406,280.7590,0,U,68405,999,685,.14504372E-3,.3408E-4,0
LPNTSAT-001 (IOD-1),2026-065A,2026-05-10T21:49:50.049120,15.18452731,.00183795,97.4068,12.2037,130.3305,229.9539,0,U,68408,999,660,.83368513E-4,.1656E-4,0
LPNTSAT-002 (IOD-2),2026-065B,2026-05-10T15:24:55.884672,15.18747582,.0015513,97.4057,11.9439,126.2099,234.0572,0,U,68409,999,654,.20321391E-3,.4166E-4,0
XINZHENGCHENG-01,2026-066A,2026-05-11T04:26:54.782592,14.88375432,.00263275,84.9659,251.2793,26.8593,333.3987,0,U,68412,999,622,.35539241E-4,.361E-5,0
XINZHENGCHENG 01,2026-066C,2026-05-11T04:20:43.037088,14.88563282,.0026928,84.9658,251.2752,27.4799,332.7842,0,U,68414,999,622,.70659E-4,.691E-5,0
TIANSHI-01,2026-066D,2026-05-11T04:23:21.035904,14.88528548,.0026123,84.9651,251.2766,27.2797,332.9792,0,U,68415,999,622,.16635E-3,.1585E-4,0
TRANSPORTER-16 OBJECT A,2026-067A,2026-05-11T03:23:47.824800,15.19002857,.000385,97.4523,90.2035,66.8208,293.3432,0,U,68416,999,632,.21379E-3,.4407E-4,0
JACK-002,2026-067B,2026-05-10T21:06:53.737632,15.18925136,.00038231,97.4540,89.9518,70.3588,289.8059,0,U,68417,999,628,.21937461E-3,.4513E-4,0
OPTISAT,2026-067C,2026-05-11T03:31:34.666464,15.18657738,.0004204,97.4562,90.2173,75.7440,284.4261,0,U,68418,999,632,.87948215E-4,.1754E-4,0
FEMTO-1,2026-067D,2026-05-11T03:30:59.727168,15.18686910,.00031939,97.4517,90.1947,64.4171,295.7393,0,U,68419,999,632,.10349326E-3,.2078E-4,0
ERMIS-2,2026-067E,2026-05-10T21:05:36.261024,15.19080868,.00030981,97.4459,89.9123,65.5417,294.6140,0,U,68420,999,628,.30570617E-3,.6346E-4,0
VIREON-2,2026-067F,2026-05-11T03:37:35.833152,15.18541939,.00024301,97.4494,90.1764,67.1347,293.0144,0,U,68421,999,632,.13806582E-3,.2783E-4,0
BRO-19,2026-067G,2026-05-11T03:37:56.528544,15.18542059,.00023735,97.4456,90.1570,68.6143,291.5344,0,U,68422,999,632,.89281195E-4,.1776E-4,0
SPOQC,2026-067H,2026-05-10T19:45:50.367168,15.18508490,.00025633,97.4479,89.8421,81.3417,278.8108,0,U,68423,999,627,.17524969E-3,.3548E-4,0
SPACEVAN-002,2026-067J,2026-05-11T04:00:33.252192,15.18022321,.00029689,97.4498,90.1578,131.8466,228.3022,0,U,68424,999,632,.20493189E-3,.4102E-4,0
ERMIS-3,2026-067K,2026-05-10T19:49:15.067776,15.18417038,.00035245,97.4564,89.8835,96.3334,263.8301,0,U,68425,999,627,.17849202E-3,.3605E-4,0
TRANSPORTER-16 OBJECT L,2026-067L,2026-05-10T19:38:44.365056,15.18936951,.00040817,97.4521,89.8719,102.4230,257.7462,0,U,68426,999,627,.35491943E-3,.7349E-4,0
EMISAR,2026-067M,2026-05-11T03:37:21.777600,15.18736378,.00038081,97.4523,90.1935,101.3447,258.8215,0,U,68427,999,632,.28693757E-3,.5893E-4,0
OUT OF THE BOX (OOTB),2026-067N,2026-05-11T03:49:51.646656,15.18221451,.00034273,97.4549,90.1941,107.1353,253.0256,0,U,68428,999,632,.13968147E-3,.2791E-4,0
TRANSPORTER-16 OBJECT P,2026-067P,2026-05-11T03:46:06.429504,15.18626594,.00042901,97.4487,90.1652,128.9779,231.1838,0,U,68429,999,632,.4103088E-3,.8432E-4,0
TRANSPORTER-16 OBJECT Q,2026-067Q,2026-05-11T03:41:30.044544,15.18556575,.00026583,97.4476,90.1654,93.7707,266.3832,0,U,68430,999,632,.23135303E-3,.4712E-4,0
