STARLINK-37190          
1 68396U 26063S   26131.14712993  .00039945  00000+0  73215-3 0  9998
2 68396  97.2846 273.8573 0001076  90.7238 269.4136 15.49198553  7466
STARLINK-37194          
1 68397U 26063T   26130.93810306 -.02009705  00000+0 -45118-1 0  9996
2 68397  97.2868 273.5303 0005423 136.1203 224.0478 15.46660066  7428
STARLINK-37220          
1 68398U 26063U   26131.16667824  .00060021  00000+0  10983-2 0  9995
2 68398  97.2843 273.8137 0001315  84.6060 225.7921 15.49150703  5743
STARLINK-37187          
1 68399U 26063V   26130.97774953  .00025109  00000+0  46148-3 0  9997
2 68399  97.2844 273.6278 0002006  85.5832 274.5649 15.49212014  7435
STARLINK-36235          
1 68400U 26063W   26131.16667824 -.01822413  00000+0 -42513-1 0  9996
2 68400  97.2848 273.9191 0002086  74.2344 118.0819 15.45268436  5737
STARLINK-37175          
1 68401U 26063X   26130.97038218  .00056343  00000+0  10297-2 0  9997
2 68401  97.2839 273.4848 0001613  91.9653 268.1783 15.49202932  7424
STARLINK-36360          
1 68402U 26063Y   26131.16667824 -.01888157  00000+0 -40478-1 0  9993
2 68402  97.2840 273.8957 0002439  82.8270  66.2659 15.47817173  5731
STARLINK-37218          
1 68403U 26063Z   26130.91836303  .00154986  00000+0  10212-2 0  9993
2 68403  97.2842 273.8652 0002818  86.5468 273.6119 15.75187519  7447
STARLINK-37188          
1 68404U 26063AA  26131.13857198  .00062478  00000+0  11409-2 0  9997
2 68404  97.2844 273.8695 0001110  82.6150 277.5227 15.49200837  7461
SHIYAN-33               
1 68405U 26064A   26131.14744273  .00003408  00000+0  14504-3 0  9997
2 68405  97.4628 206.8564 0015623  79.5406 280.7590 15.23577343  6850
LPNTSAT-001 (IOD-1)     
1 68408U 26065A   26130.90960705  .00001656  00000+0  83369-4 0  9993
2 68408  97.4068  12.2037 0018379 130.3305 229.9539 15.18452731  6608
LPNTSAT-002 (IOD-2)     
1 68409U 26065B   26130.64231348  .00004166  00000+0  20321-3 0  9996
2 68409  97.4057  11.9439 0015513 126.2099 234.0572 15.18747582  6548
XINZHENGCHENG-01        
1 68412U 26066A   26131.18535628  .00000361  00000+0  35539-4 0  9990
2 68412  84.9659 251.2793 0026327  26.8593 333.3987 14.88375432  6227
XINZHENGCHENG 01        
1 68414U 26066C   26131.18105367  .00000691  00000+0  70659-4 0  9993
2 68414  84.9658 251.2752 0026928  27.4799 332.7842 14.88563282  6220
TIANSHI-01              
1 68415U 26066D   26131.18288236  .00001585  00000+0  16635-3 0  9997
2 68415  84.9651 251.2766 0026123  27.2797 332.9792 14.88528548  6224
TRANSPORTER-16 OBJECT A 
1 68416U 26067A   26131.14152575  .00004407  00000+0  21379-3 0  9998
2 68416  97.4523  90.2035 0003850  66.8208 293.3432 15.19002857  6327
JACK-002                
1 68417U 26067B   26130.87978863  .00004513  00000+0  21937-3 0  9992
2 68417  97.4540  89.9518 0003823  70.3588 289.8059 15.18925136  6282
OPTISAT                 
1 68418U 26067C   26131.14692901  .00001754  00000+0  87948-4 0  9999
2 68418  97.4562  90.2173 0004204  75.7440 284.4261 15.18657738  6320
FEMTO-1                 
1 68419U 26067D   26131.14652462  .00002078  00000+0  10349-3 0  9998
2 68419  97.4517  90.1947 0003193  64.4171 295.7393 15.18686910  6326
ERMIS-2                 
1 68420U 26067E   26130.87889191  .00006346  00000+0  30571-3 0  9991
2 68420  97.4459  89.9123 0003098  65.5417 294.6140 15.19080868  6288
VIREON-2                
1 68421U 26067F   26131.15110918  .00002783  00000+0  13807-3 0  9992
2 68421  97.4494  90.1764 0002430  67.1347 293.0144 15.18541939  6324
BRO-19                  
1 68422U 26067G   26131.15134871  .00001776  00000+0  89281-4 0  9998
2 68422  97.4456  90.1570 0002373  68.6143 291.5344 15.18542059  6323
SPOQC                   
1 68423U 26067H   26130.82349962  .00003548  00000+0  17525-3 0  9991
2 68423  97.4479  89.8421 0002563  81.3417 278.8108 15.18508490  6277
SPACEVAN-002            
1 68424U 26067J   26131.16705153  .00004102  00000+0  20493-3 0  9993
2 68424  97.4498  90.1578 0002968 131.8466 228.3022 15.18022321  6326
ERMIS-3                 
1 68425U 26067K   26130.82586884  .00003605  00000+0  17849-3 0  9992
2 68425  97.4564  89.8835 0003524  96.3334 263.8301 15.18417038  6271
TRANSPORTER-16 OBJECT L 
1 68426U 26067L   26130.81856904  .00007349  00000+0  35492-3 0  9998
2 68426  97.4521  89.8719 0004081 102.4230 257.7462 15.18936951  6279
EMISAR                  
1 68427U 26067M   26131.15094650  .00005893  00000+0  28694-3 0  9997
2 68427  97.4523  90.1935 0003808 101.3447 258.8215 15.18736378  6326
OUT OF THE BOX (OOTB)   
1 68428U 26067N   26131.15962554  .00002791  00000+0  13968-3 0  9997
2 68428  97.4549  90.1941 0003427 107.1353 253.0256 15.18221451  6322
TRANSPORTER-16 OBJECT P 
1 68429U 26067P   26131.15701886  .00008432  00000+0  41031-3 0  9997
2 68429  97.4487  90.1652 0004290 128.9779 231.1838 15.18626594  6325
TRANSPORTER-16 OBJECT Q 
1 68430U 26067Q   26131.15381996  .00004712  00000+0  23135-3 0  9997
2 68430  97.4476  90.1654 0002658  93.7707 266.3832 15.18556575  6328
